OPTICUBE 04             
1 41851U 16067D   24293.94248994  .00011098  00000+0  79555-3 0  9990
2 41851  98.0873 104.3359 0017502   2.7165 357.4151 15.04428925433980
AEROCUBE 8D             
1 41852U 16067E   24293.93169050  .00022924  00000+0  13651-2 0  9999
2 41852  98.1128 110.2815 0005301  54.2467 305.9253 15.11210149434212
AEROCUBE 8C             
1 41853U 16067F   24293.48401568  .00024772  00000+0  14746-2 0  9992
2 41853  98.0957 108.0845 0007006 346.9886  13.1161 15.11197665434134
PROMETHEUS 2-1          
1 41854U 16067G   24293.49392125  .00058989  00000+0  23504-2 0  9991
2 41854  98.0982 117.8255 0010585 353.2242   6.8849 15.24951027434629
PROMETHEUS 2-3          
1 41855U 16067H   24293.49452998  .00059110  00000+0  23616-2 0  9998
2 41855  98.0920 117.1940 0009115   3.4579 356.6718 15.24872422434622
CORVUS BC2              
1 42846U 17042X   24293.45704123  .00017449  00000+0  14176-2 0  9999
2 42846  97.3778 111.8079 0008763  16.3547 343.7958 14.99627011396056
CORVUS BC1              
1 42847U 17042Y   24293.40504127  .00015779  00000+0  12775-2 0  9994
2 42847  97.3769 112.1818 0008930   5.0718 355.0595 14.99781635396060
MIRATA                  
1 43015U 17073C   24293.43919651  .00068332  00000+0  25685-2 0  9998
2 43015  97.5720 177.3515 0144209 192.7722 166.9844 15.17660350375102
MAKERSAT 0              
1 43016U 17073D   24293.38106810  .00049510  00000+0  25279-2 0  9994
2 43016  97.5518 169.1693 0175805 220.6960 138.1022 15.04042149374547
SIRION PATHFINDER-2     
1 43759U 18099B   24293.38727790  .00020595  00000+0  14399-2 0  9996
2 43759  97.5127 346.1304 0009777 218.5954 141.4575 15.05286967321176
CORVUS BC4              
1 43767U 18099K   24293.61969407  .00019330  00000+0  13877-2 0  9999
2 43767  97.4972 343.1613 0008607 281.9128  78.1133 15.04315213321082
MOVE-II                 
1 43780U 18099Y   24293.64681250  .00119639  00000+0  45546-2 0  9995
2 43780  97.5040 356.1402 0004448 253.9748 106.1001 15.26222273321836
SPACEBEE-7              
1 43816U 18099BL  24293.16294356  .00047469  00000+0  23046-2 0  9991
2 43816  97.5334 355.7572 0008373 210.7988 149.2756 15.18274882321179
SPACEBEE-6              
1 43818U 18099BN  24293.62603743  .00250182  00000+0  55659-2 0  9991
2 43818  97.5238   4.5236 0006994 209.0358 151.0501 15.42653949321945
SHIELDS 1               
1 43850U 18104B   24293.72477249  .00052374  00000+0  11390-2 0  9992
2 43850  85.0251 198.2481 0008271 345.3517  14.7495 15.44077689325339
SONATE                  
1 44400U 19038Q   24293.91397421  .00063210  00000+0  13838-2 0  9995
2 44400  97.7145 294.3843 0014843  32.7469 327.4695 15.43791465293253
LUCKY-7                 
1 44406U 19038W   24293.94438885  .00220986  00000+0  20541-2 0  9998
2 44406  97.6961 301.1835 0008088  26.6662 333.5012 15.66683793293725
DUCHIFAT-3              
1 44854U 19089C   24293.58379398  .00060487  00000+0  24347-2 0  9990
2 44854  36.9547  10.1785 0008175  78.3525 281.8142 15.23823955267200
M2 PATHFINDER           
1 45727U 20037E   24293.43791738  .00015838  00000+0  13112-2 0  9993
2 45727  97.7811 109.4106 0012470  73.7727 286.4867 14.98899613234545
NETSAT-4                
1 46504U 20068U   24293.40055416  .00042801  00000+0  19942-2 0  9991
2 46504  97.8200 254.3408 0006587 306.2760  53.7865 15.19744031223009
NETSAT-3                
1 46505U 20068V   24293.63114063  .00043224  00000+0  20488-2 0  9998
2 46505  97.8187 253.9308 0006501 320.2384  39.8373 15.19146947223025
NETSAT-1                
1 46506U 20068W   24293.84569132  .00024578  00000+0  12575-2 0  9992
2 46506  97.8204 253.2681 0006221 333.0505  27.0403 15.16610205222997
NETSAT-2                
1 46507U 20068X   24293.88154052  .00027848  00000+0  13029-2 0  9996
2 46507  97.8191 254.4363 0005435 345.8080  14.3001 15.19708856223029
WILDTRACKCUBE-SIMBA     
1 47941U 21022K   24293.91392887  .00043863  00000+0  15985-2 0  9992
2 47941  97.4424 189.9336 0016464  68.6515 291.6479 15.27920617197463
GRBALPHA                
1 47959U 21022AD  24293.88528320  .00082316  00000+0  23302-2 0  9998
2 47959  97.4419 192.8377 0014872  61.1796 299.0939 15.35869171196473
BEESAT-8                
1 48085U 21022AP  24293.46873327  .00154023  00000+0  29813-2 0  9991
2 48085  97.4673 197.8068 0012698  54.7571 305.4865 15.47079033196980
LEDSAT                  
1 49069U 21073D   24293.93033640  .00056877  00000+0  17772-2 0  9997
2 49069  97.4238   4.7381 0016474 198.7175 161.3463 15.32839043175506
ROBUSTA-1F (MTCUBE 2)   
1 53109U 22080E   24291.58020818 -.00000003  00000+0  00000+0 0  9992
2 53109  70.1189 149.5716 0008293  62.1764 297.9735  6.42584085 53021
SITRO-AIS 5 (KATYS)     
1 57176U 23091L   24293.86752960  .00025815  00000+0  14882-2 0  9999
2 57176  97.5965 345.1628 0017747  58.6976 301.5989 15.12227620 72311
SITRO-AIS 6 (CHIRKIN)   
1 57192U 23091AC  24293.91484326  .00025961  00000+0  14957-2 0  9996
2 57192  97.5957 345.2405 0017409  58.0372 302.2548 15.12253852 72329
SITRO-AIS 8 (ANOKHIN)   
1 57193U 23091AD  24293.91315888  .00027929  00000+0  15818-2 0  9996
2 57193  97.5956 345.3859 0017029  58.9056 301.3843 15.12857683 72330
SITRO-AIS 7 (FARTUSHNIY)
1 57194U 23091AE  24293.92457086  .00025273  00000+0  14592-2 0  9993
2 57194  97.5959 345.2192 0017376  58.8339 301.4592 15.12182260 72324
SITRO-AIS 10 (BURDAEV)  
1 57199U 23091AK  24293.92060889  .00035942  00000+0  19151-2 0  9999
2 57199  97.5970 346.6931 0012187  48.3544 311.8729 15.15039869 72411
SITRO-AIS 9 (SHCHUKIN)  
1 57201U 23091AM  24293.92108506  .00036265  00000+0  19344-2 0  9995
2 57201  97.5965 346.6616 0012152  48.4034 311.8238 15.14999193 72415
SITRO-AIS 12 (SMIRENNIY)
1 57204U 23091AQ  24293.86756240  .00033269  00000+0  17658-2 0  9992
2 57204  97.5977 346.7901 0011989  43.4545 316.7630 15.15197820 72416
SITRO-AIS 11 (SHEFFER)  
1 57208U 23091AU  24293.91064916  .00029900  00000+0  15823-2 0  9993
2 57208  97.5974 346.8725 0011783  42.8722 317.3426 15.15329341 72420
ROBUSTA-1E (ENSO)       
1 58470U 23185J   24293.88679870  .00051416  00000+0  17096-2 0  9997
2 58470  97.4106 359.7706 0010905 192.5137 167.5835 15.30944233 49162
SITRO-AIS 29            
1 59052U 24039B   24293.89075657  .00082644  00000+0  21176-2 0  9998
2 59052  97.4047 255.7780 0017834 122.0061 238.2920 15.38906885 35695
SITRO-AIS 30            
1 59053U 24039C   24293.90263051  .00077430  00000+0  20057-2 0  9992
2 59053  97.4048 255.7564 0018009 123.0234 237.2745 15.38592105 35684
SITRO-AIS 31            
1 59054U 24039D   24293.88029280  .00083668  00000+0  21453-2 0  9995
2 59054  97.4045 255.7872 0017675 122.8474 237.4476 15.38884696 35700
SITRO-AIS 33            
1 59055U 24039E   24293.92729051  .00090793  00000+0  23173-2 0  9992
2 59055  97.4049 255.8874 0017375 122.9983 237.2935 15.39000947 35709
SITRO-AIS 35            
1 59056U 24039F   24293.92241590  .00087323  00000+0  22312-2 0  9999
2 59056  97.4048 255.8893 0017227 123.1450 237.1451 15.38984486 35708
SITRO-AIS 32            
1 59057U 24039G   24293.87631859  .00081212  00000+0  20934-2 0  9994
2 59057  97.4052 255.8027 0017451 123.5267 236.7648 15.38736112 35694
SITRO-AIS 34            
1 59058U 24039H   24293.92730919  .00089625  00000+0  22861-2 0  9995
2 59058  97.4049 255.8889 0017228 123.0204 237.2699 15.39027233 35707
SITRO-AIS 36            
1 59059U 24039J   24293.91053998  .00085344  00000+0  21702-2 0  9997
2 59059  97.4048 255.9059 0017206 123.2927 236.9970 15.39140271 35703
SITRO-AIS 49            
1 59060U 24039K   24293.91873409  .00085317  00000+0  21866-2 0  9997
2 59060  97.4053 255.8962 0017165 122.5538 237.7368 15.38900464 35704
SITRO-AIS 50            
1 59061U 24039L   24293.89027257  .00083433  00000+0  21075-2 0  9996
2 59061  97.4049 255.9308 0017146 122.4531 237.8376 15.39353498 35706
SITRO-AIS 51            
1 59062U 24039M   24293.88945972  .00085627  00000+0  21616-2 0  9997
2 59062  97.4048 255.9309 0017119 122.7855 237.5043 15.39363135 35706
SITRO-AIS 52            
1 59063U 24039N   24293.87432438  .00083396  00000+0  21000-2 0  9993
2 59063  97.4048 255.9543 0016847 122.4875 237.8002 15.39454343 35703
SITRO-AIS 25            
1 59066U 24039R   24293.89796058  .00016971  00000+0  15524-2 0  9998
2 59066  95.3906 181.8951 0163005 273.6318  84.6275 14.85355597 34605
SITRO-AIS 26            
1 59067U 24039S   24293.90233030  .00017358  00000+0  15919-2 0  9995
2 59067  95.3907 181.8904 0163109 273.6763  84.5820 14.85246347 34601
SITRO-AIS 27            
1 59068U 24039T   24293.87659204  .00015610  00000+0  14248-2 0  9990
2 59068  95.3909 181.9197 0162576 273.4754  84.7885 14.85497464 34605
SITRO-AIS 28            
1 59071U 24039U   24293.87022577  .00015821  00000+0  14430-2 0  9998
2 59071  95.3911 181.9277 0162343 273.4449  84.8215 14.85548835 34601
GRBBETA                 
1 60237U 24128C   24293.88436511  .00013466  00000+0  11229-2 0  9997
2 60237  61.9927 168.6099 0021663 353.8398   6.2421 14.98706497 15275
OOV-CUBE (TUBSAT-30)    
1 60240U 24128F   24293.80242187  .00009246  00000+0  79931-3 0  9993
2 60240  61.9967 169.3568 0019814 347.2418  12.8166 14.97620195 15264
ROBUSTA-3A (MEDITERRAN*)
1 60243U 24128J   24293.93874843  .00021716  00000+0  18114-2 0  9991
2 60243  61.9900 168.8269 0019913 338.0617  21.9617 14.98459336 15287
